OBJECT_NAME,OBJECT_ID,EPOCH,MEAN_MOTION,ECCENTRICITY,INCLINATION,RA_OF_ASC_NODE,ARG_OF_PERICENTER,MEAN_ANOMALY,EPHEMERIS_TYPE,CLASSIFICATION_TYPE,NORAD_CAT_ID,ELEMENT_SET_NO,REV_AT_EPOCH,BSTAR,MEAN_MOTION_DOT,MEAN_MOTION_DDOT
STARLINK-3963,2022-052AX,2026-06-12T18:26:21.273792,15.08833104,.000122,53.1592,192.1991,88.5245,271.5886,0,U,52643,999,22548,.2877E-4,.17E-5,0
STARLINK-3985,2022-052AY,2026-06-12T06:13:40.075968,15.08847675,.00011309,53.1588,194.5121,74.2270,285.8846,0,U,52644,999,22540,.12472824E-3,.1698E-4,0
STARLINK-3973,2022-052AZ,2026-06-12T18:40:55.634016,15.08816957,.0001497,53.1593,192.2947,109.3281,250.7872,0,U,52645,999,22548,-.14075E-3,-.2526E-4,0
STARLINK-3832,2022-052BA,2026-06-12T18:46:11.093376,15.08832916,.0001102,53.1584,192.2041,87.6814,272.4304,0,U,52646,999,22549,.31533E-4,.214E-5,0
STARLINK-3854,2022-052BC,2026-06-12T18:35:34.831680,15.08829949,.0001139,53.1582,192.1971,79.8712,280.2408,0,U,52648,999,22548,.15583E-4,-.4E-6,0
STARLINK-3868,2022-052BD,2026-06-12T06:50:45.457440,15.08835672,.00012267,53.1607,194.2497,87.2379,272.8753,0,U,52649,999,22542,.31559614E-4,.214E-5,0
STARLINK-3891,2022-052BE,2026-06-12T18:47:31.161120,15.08835362,.0001362,53.1591,182.2675,76.6856,283.4287,0,U,52650,999,22563,.3866E-4,.327E-5,0
STARLINK-4004,2022-053A,2026-06-12T02:01:22.116000,15.08833278,.0001381,53.1613,90.3105,83.7531,276.3618,0,U,52656,999,22536,.30077788E-4,.191E-5,0
STARLINK-4084,2022-053B,2026-06-12T02:54:25.144704,15.08834275,.00013906,53.1605,90.4550,85.1189,274.9961,0,U,52657,999,22566,.34516022E-4,.261E-5,0
STARLINK-4082,2022-053C,2026-06-12T02:05:17.498112,15.08830152,.00014776,53.1603,90.2897,90.9522,269.1639,0,U,52658,999,22548,-.34695046E-4,-.84E-5,0
STARLINK-3960,2022-053D,2026-06-12T00:24:35.694720,15.08833615,.00015222,53.1613,90.5545,101.5536,258.5626,0,U,52659,999,22546,.8081287E-5,-.159E-5,0
STARLINK-4081,2022-053E,2026-06-12T01:54:41.353920,15.08835560,.00013588,53.1608,90.3227,89.9550,270.1597,0,U,52660,999,22536,.31579071E-4,.215E-5,0
STARLINK-4044,2022-053G,2026-06-12T01:38:47.468544,15.08835932,.00013469,53.1603,90.3736,87.9903,272.1243,0,U,52662,999,22529,.57891415E-4,.633E-5,0
STARLINK-4037,2022-053H,2026-06-12T01:33:29.551968,15.08830426,.00013473,53.1614,90.3930,97.3438,262.7707,0,U,52663,999,22529,.81242046E-4,.1005E-4,0
STARLINK-4070,2022-053J,2026-06-12T01:44:05.519040,15.08834305,.00013614,53.1609,90.3567,88.1376,271.9771,0,U,52664,999,22529,.16463022E-4,-.26E-6,0
STARLINK-4064,2022-053K,2026-06-12T02:52:58.600416,15.08834873,.00013926,53.1613,90.1430,95.4036,264.7114,0,U,52665,999,22530,.62132189E-4,.701E-5,0
STARLINK-4079,2022-053L,2026-06-12T02:10:31.404000,15.08824410,.00013145,53.1603,89.8878,87.0037,273.1105,0,U,52666,999,22530,.9247676E-5,-.141E-5,0
STARLINK-4076,2022-053M,2026-06-12T02:47:41.217792,15.08833656,.0001771,53.1608,90.1576,83.6579,276.4614,0,U,52667,999,22530,.29601738E-4,.183E-5,0
STARLINK-4067,2022-053N,2026-06-12T02:58:16.916160,15.08835666,.00012786,53.1599,90.1248,90.6650,269.4488,0,U,52668,999,22530,.22675871E-4,.73E-6,0
STARLINK-3972,2022-053P,2026-06-12T02:31:47.455104,15.08831962,.00014903,53.1599,90.2075,87.5461,272.5701,0,U,52669,999,22529,.26487077E-4,.133E-5,0
STARLINK-4075,2022-053Q,2026-06-12T01:28:12.415584,15.08837705,.00015541,53.1606,90.4743,85.4737,274.6432,0,U,52670,999,22529,.35208692E-4,.272E-5,0
STARLINK-4071,2022-053R,2026-06-12T02:26:29.445216,15.08830703,.00010381,53.1591,90.2229,78.0554,282.0553,0,U,52671,999,22529,.11412368E-4,-.106E-5,0
STARLINK-4073,2022-053S,2026-06-12T02:42:23.393664,15.08833108,.00013791,53.1601,90.1739,82.7987,277.3161,0,U,52672,999,22529,.18914954E-4,.13E-6,0
STARLINK-3976,2022-053T,2026-06-12T02:15:53.438400,15.08830982,.00014516,53.1609,90.2577,95.5837,264.5321,0,U,52673,999,22529,.39917671E-4,.347E-5,0
STARLINK-3936,2022-053U,2026-06-12T20:00:01.999008,15.48786035,.000141,53.2183,76.8584,77.2110,75.7025,0,U,52674,999,585,.35136E-2,.196304E-2,0
STARLINK-3934,2022-053V,2026-06-12T02:11:54.876768,15.08838199,.00013184,53.1604,80.2704,92.3970,267.7172,0,U,52675,999,22542,.14880632E-3,.2081E-4,0
STARLINK-4006,2022-053W,2026-06-12T02:21:11.636640,15.08830076,.00017478,53.1602,90.2412,87.0382,273.0809,0,U,52676,999,22529,.39370516E-4,.338E-5,0
STARLINK-4074,2022-053Y,2026-06-12T00:52:26.415840,15.08840524,.00014423,53.1610,80.6239,86.8514,273.2643,0,U,52678,999,22541,.509923E-4,.524E-5,0
STARLINK-4031,2022-053Z,2026-06-12T01:45:25.197984,15.08831312,.00011682,53.1585,80.3520,86.8401,273.2724,0,U,52679,999,22538,.52726094E-4,.551E-5,0
STARLINK-3774,2022-053AA,2026-06-12T01:34:46.902432,15.08830884,.00015628,53.1609,80.1522,79.6377,280.4790,0,U,52680,999,22540,.4022875E-4,.352E-5,0
