STARLINK-3963           
1 52643U 22052AX  26163.76830178  .00000170  00000+0  28770-4 0  9994
2 52643  53.1592 192.1991 0001220  88.5245 271.5886 15.08833104225487
STARLINK-3985           
1 52644U 22052AY  26163.25949162  .00001698  00000+0  12473-3 0  9991
2 52644  53.1588 194.5121 0001130  74.2270 285.8846 15.08847675225408
STARLINK-3973           
1 52645U 22052AZ  26163.77842169 -.00002526  00000+0 -14075-3 0  9991
2 52645  53.1593 192.2947 0001497 109.3281 250.7872 15.08816957225481
STARLINK-3832           
1 52646U 22052BA  26163.78207284  .00000214  00000+0  31533-4 0  9995
2 52646  53.1584 192.2041 0001102  87.6814 272.4304 15.08832916225495
STARLINK-3854           
1 52648U 22052BC  26163.77470870 -.00000040  00000+0  15583-4 0  9994
2 52648  53.1582 192.1971 0001139  79.8712 280.2408 15.08829949225489
STARLINK-3868           
1 52649U 22052BD  26163.28524835  .00000214  00000+0  31560-4 0  9997
2 52649  53.1607 194.2497 0001226  87.2379 272.8753 15.08835672225427
STARLINK-3891           
1 52650U 22052BE  26163.78299955  .00000327  00000+0  38660-4 0  9999
2 52650  53.1591 182.2675 0001362  76.6856 283.4287 15.08835362225638
STARLINK-4004           
1 52656U 22053A   26163.08428375  .00000191  00000+0  30078-4 0  9993
2 52656  53.1613  90.3105 0001381  83.7531 276.3618 15.08833278225369
STARLINK-4084           
1 52657U 22053B   26163.12112436  .00000261  00000+0  34516-4 0  9996
2 52657  53.1605  90.4550 0001390  85.1189 274.9961 15.08834275225667
STARLINK-4082           
1 52658U 22053C   26163.08700808 -.00000840  00000+0 -34695-4 0  9991
2 52658  53.1603  90.2897 0001477  90.9522 269.1639 15.08830152225487
STARLINK-3960           
1 52659U 22053D   26163.01707980 -.00000159  00000+0  80813-5 0  9999
2 52659  53.1613  90.5545 0001522 101.5536 258.5626 15.08833615225460
STARLINK-4081           
1 52660U 22053E   26163.07964530  .00000215  00000+0  31579-4 0  9999
2 52660  53.1608  90.3227 0001358  89.9550 270.1597 15.08835560225360
STARLINK-4044           
1 52662U 22053G   26163.06860496  .00000633  00000+0  57891-4 0  9995
2 52662  53.1603  90.3736 0001346  87.9903 272.1243 15.08835932225294
STARLINK-4037           
1 52663U 22053H   26163.06492537  .00001005  00000+0  81242-4 0  9994
2 52663  53.1614  90.3930 0001347  97.3438 262.7707 15.08830426225295
STARLINK-4070           
1 52664U 22053J   26163.07228610 -.00000026  00000+0  16463-4 0  9991
2 52664  53.1609  90.3567 0001361  88.1376 271.9771 15.08834305225294
STARLINK-4064           
1 52665U 22053K   26163.12012269  .00000701  00000+0  62132-4 0  9992
2 52665  53.1613  90.1430 0001392  95.4036 264.7114 15.08834873225308
STARLINK-4079           
1 52666U 22053L   26163.09064125 -.00000141  00000+0  92477-5 0  9992
2 52666  53.1603  89.8878 0001314  87.0037 273.1105 15.08824410225301
STARLINK-4076           
1 52667U 22053M   26163.11644928  .00000183  00000+0  29602-4 0  9995
2 52667  53.1608  90.1576 0001771  83.6579 276.4614 15.08833656225300
STARLINK-4067           
1 52668U 22053N   26163.12380690  .00000073  00000+0  22676-4 0  9992
2 52668  53.1599  90.1248 0001278  90.6650 269.4488 15.08835666225300
STARLINK-3972           
1 52669U 22053P   26163.10541036  .00000133  00000+0  26487-4 0  9995
2 52669  53.1599  90.2075 0001490  87.5461 272.5701 15.08831962225297
STARLINK-4075           
1 52670U 22053Q   26163.06125481  .00000272  00000+0  35209-4 0  9990
2 52670  53.1606  90.4743 0001554  85.4737 274.6432 15.08837705225291
STARLINK-4071           
1 52671U 22053R   26163.10172969 -.00000106  00000+0  11412-4 0  9996
2 52671  53.1591  90.2229 0001038  78.0554 282.0553 15.08830703225292
STARLINK-4073           
1 52672U 22053S   26163.11277076  .00000013  00000+0  18915-4 0  9994
2 52672  53.1601  90.1739 0001379  82.7987 277.3161 15.08833108225294
STARLINK-3976           
1 52673U 22053T   26163.09436850  .00000347  00000+0  39918-4 0  9995
2 52673  53.1609  90.2577 0001451  95.5837 264.5321 15.08830982225294
STARLINK-3936           
1 52674U 22053U   26163.83335647  .00196304  00000+0  35136-2 0  9995
2 52674  53.2183  76.8584 0001410  77.2110  75.7025 15.48786035  5851
STARLINK-3934           
1 52675U 22053V   26163.09160737  .00002081  00000+0  14881-3 0  9993
2 52675  53.1604  80.2704 0001318  92.3970 267.7172 15.08838199225429
STARLINK-4006           
1 52676U 22053W   26163.09805135  .00000338  00000+0  39371-4 0  9997
2 52676  53.1602  90.2412 0001747  87.0382 273.0809 15.08830076225297
STARLINK-4074           
1 52678U 22053Y   26163.03641685  .00000524  00000+0  50992-4 0  9990
2 52678  53.1610  80.6239 0001442  86.8514 273.2643 15.08840524225415
STARLINK-4031           
1 52679U 22053Z   26163.07320831  .00000551  00000+0  52726-4 0  9999
2 52679  53.1585  80.3520 0001168  86.8401 273.2724 15.08831312225388
STARLINK-3774           
1 52680U 22053AA  26163.06582063  .00000352  00000+0  40229-4 0  9991
2 52680  53.1609  80.1522 0001562  79.6377 280.4790 15.08830884225406
